{
    "links": {
        "self": "http://www.neowsapp.com/rest/v1/neo/3412894?api_key=iIulBulltgU6a56xZRHN4H3l9WmuAYTsLGpBGhQ2"
    },
    "id": "3412894",
    "neo_reference_id": "3412894",
    "name": "(2008 KE6)",
    "designation": "2008 KE6",
    "nasa_jpl_url": "http://ssd.jpl.nasa.gov/sbdb.cgi?sstr=3412894",
    "absolute_magnitude_h": 20.6,
    "estimated_diameter": {
        "kilometers": {
            "estimated_diameter_min": 0.2016299194,
            "estimated_diameter_max": 0.4508582062
        },
        "meters": {
            "estimated_diameter_min": 201.6299194428,
            "estimated_diameter_max": 450.8582061718
        },
        "miles": {
            "estimated_diameter_min": 0.1252869847,
            "estimated_diameter_max": 0.2801502144
        },
        "feet": {
            "estimated_diameter_min": 661.5155049046,
            "estimated_diameter_max": 1479.1936371367
        }
    },
    "is_potentially_hazardous_asteroid": true,
    "close_approach_data": [
        {
            "close_approach_date": "2008-06-09",
            "close_approach_date_full": "2008-Jun-09 04:43",
            "epoch_date_close_approach": 1212986580000,
            "relative_velocity": {
                "kilometers_per_second": "19.4173096489",
                "kilometers_per_hour": "69902.314736121",
                "miles_per_hour": "43434.5799536747"
            },
            "miss_distance": {
                "astronomical": "0.2080248126",
                "lunar": "80.9216521014",
                "kilometers": "31120068.872109162",
                "miles": "19337114.1232319556"
            },
            "orbiting_body": "Earth"
        }
    ],
    "orbital_data": {
        "orbit_id": "9",
        "orbit_determination_date": "2017-04-06 09:03:21",
        "first_observation_date": "2008-05-29",
        "last_observation_date": "2008-06-07",
        "data_arc_in_days": 9,
        "observations_used": 29,
        "orbit_uncertainty": "9",
        "minimum_orbit_intersection": ".0225482",
        "jupiter_tisserand_invariant": "4.042",
        "epoch_osculation": "2454617.5",
        "eccentricity": ".5224160674815697",
        "semi_major_axis": "1.69465778529817",
        "inclination": "3.432922288985244",
        "ascending_node_longitude": "113.8417729955515",
        "orbital_period": "805.7892024227199",
        "perihelion_distance": ".809341329375674",
        "perihelion_argument": "224.0426840058129",
        "aphelion_distance": "2.579974241220667",
        "perihelion_time": "2454674.782369195160",
        "mean_anomaly": "334.4081295104779",
        "mean_motion": ".4467669694724237",
        "equinox": "J2000",
        "orbit_class": {
            "orbit_class_type": "APO",
            "orbit_class_description": "Near-Earth asteroid orbits which cross the Earth’s orbit similar to that of 1862 Apollo",
            "orbit_class_range": "a (semi-major axis) > 1.0 AU; q (perihelion) < 1.017 AU"
        }
    },
    "is_sentry_object": false
}